[
 {
    "code":"PREF01",
    "name":"北海道",
    "areacode":"AREA150"
    },
 {
    "code":"PREF02",
    "name":"青森県",
    "areacode":"AREA160"
    },
 {
    "code":"PREF03",
    "name":"岩手県",
    "areacode":"AREA160"
    },
 {
    "code":"PREF04",
    "name":"宮城県",
    "areacode":"AREA160"
    },
 {
    "code":"PREF05",
    "name":"秋田県",
    "areacode":"AREA160"
    },
 {
    "code":"PREF06",
    "name":"山形県",
    "areacode":"AREA160"
    },
 {
    "code":"PREF07",
    "name":"福島県",
    "areacode":"AREA160"
    },
 {
    "code":"PREF08",
    "name":"茨城県",
    "areacode":"AREA110"
    },
 {
    "code":"PREF09",
    "name":"栃木県",
    "areacode":"AREA110"
    },
 {
    "code":"PREF10",
    "name":"群馬県",
    "areacode":"AREA110"
    },
 {
    "code":"PREF11",
    "name":"埼玉県",
    "areacode":"AREA110"
    },
 {
    "code":"PREF12",
    "name":"千葉県",
    "areacode":"AREA110"
    },
 {
    "code":"PREF13",
    "name":"東京都",
    "areacode":"AREA110"
    },
 {
    "code":"PREF14",
    "name":"神奈川県",
    "areacode":"AREA110"
    },
 {
    "code":"PREF15",
    "name":"新潟県",
    "areacode":"AREA170"
    },
 {
    "code":"PREF16",
    "name":"富山県",
    "areacode":"AREA170"
    },
 {
    "code":"PREF17",
    "name":"石川県",
    "areacode":"AREA170"
    },
 {
    "code":"PREF18",
    "name":"福井県",
    "areacode":"AREA170"
    },
 {
    "code":"PREF19",
    "name":"山梨県",
    "areacode":"AREA130"
    },
 {
    "code":"PREF20",
    "name":"長野県",
    "areacode":"AREA130"
    },
 {
    "code":"PREF21",
    "name":"岐阜県",
    "areacode":"AREA130"
    },
 {
    "code":"PREF22",
    "name":"静岡県",
    "areacode":"AREA130"
    },
 {
    "code":"PREF23",
    "name":"愛知県",
    "areacode":"AREA130"
    },
 {
    "code":"PREF24",
    "name":"三重県",
    "areacode":"AREA130"
    },
 {
    "code":"PREF25",
    "name":"滋賀県",
    "areacode":"AREA120"
    },
 {
    "code":"PREF26",
    "name":"京都府",
    "areacode":"AREA120"
    },
 {
    "code":"PREF27",
    "name":"大阪府",
    "areacode":"AREA120"
    },
 {
    "code":"PREF28",
    "name":"兵庫県",
    "areacode":"AREA120"
    },
 {
    "code":"PREF29",
    "name":"奈良県",
    "areacode":"AREA120"
    },
 {
    "code":"PREF30",
    "name":"和歌山県",
    "areacode":"AREA120"
    },
 {
    "code":"PREF31",
    "name":"鳥取県",
    "areacode":"AREA180"
    },
 {
    "code":"PREF32",
    "name":"島根県",
    "areacode":"AREA180"
    },
 {
    "code":"PREF33",
    "name":"岡山県",
    "areacode":"AREA180"
    },
 {
    "code":"PREF34",
    "name":"広島県",
    "areacode":"AREA180"
    },
 {
    "code":"PREF35",
    "name":"山口県",
    "areacode":"AREA180"
    },
 {
    "code":"PREF36",
    "name":"徳島県",
    "areacode":"AREA190"
    },
 {
    "code":"PREF37",
    "name":"香川県",
    "areacode":"AREA190"
    },
 {
    "code":"PREF38",
    "name":"愛媛県",
    "areacode":"AREA190"
    },
 {
    "code":"PREF39",
    "name":"高知県",
    "areacode":"AREA190"
    },
 {
    "code":"PREF40",
    "name":"福岡県",
    "areacode":"AREA140"
    },
 {
    "code":"PREF41",
    "name":"佐賀県",
    "areacode":"AREA140"
    },
 {
    "code":"PREF42",
    "name":"長崎県",
    "areacode":"AREA140"
    },
 {
    "code":"PREF43",
    "name":"熊本県",
    "areacode":"AREA140"
    },
 {
    "code":"PREF44",
    "name":"大分県",
    "areacode":"AREA140"
    },
 {
    "code":"PREF45",
    "name":"宮崎県",
    "areacode":"AREA140"
    },
 {
    "code":"PREF46",
    "name":"鹿児島県",
    "areacode":"AREA140"
    },
 {
    "code":"PREF47",
    "name":"沖縄県",
    "areacode":"AREA200"
    }
]